GLOBALSTAR M075         
1 37192U 10054E   25204.82980425 -.00000089  00000+0  83050-4 0  9990
2 37192  51.9953  69.9686 0000753  67.7895  10.8027 12.62266287680472
GLOBALSTAR M073         
1 37193U 10054F   25204.59272043 -.00000104  00000+0  98559-6 0  9995
2 37193  52.0081 344.5363 0000896  93.9238 347.3212 12.62272575682430
GLOBALSTAR M083         
1 37739U 11033A   25204.51225281 -.00000075  00000+0  15875-3 0  9997
2 37739  51.9865 293.4678 0000403 119.3936 253.9840 12.62260266651447
GLOBALSTAR M088         
1 37740U 11033B   25204.96173699 -.00000098  00000+0  29769-4 0  9996
2 37740  52.0188 197.7261 0000022 224.5542 153.4856 12.62267008647045
GLOBALSTAR M091         
1 37741U 11033C   25204.61249257 -.00000116  00000+0 -71028-4 0  9990
2 37741  51.9981 162.2378 0000390 347.3140 183.6834 12.62269430647780
GLOBALSTAR M085         
1 37742U 11033D   25204.89499561 -.00000107  00000+0 -18194-4 0  9991
2 37742  51.9864 112.3831 0000589  28.9375  47.0704 12.62269880648333
GLOBALSTAR M081         
1 37743U 11033E   25204.92228569 -.00000108  00000+0 -21267-4 0  9990
2 37743  51.9956 115.1123 0000741  37.7436  40.6188 12.62267094648483
GLOBALSTAR M089         
1 37744U 11033F   25204.86817451 -.00000088  00000+0  88583-4 0  9998
2 37744  51.9936  69.4967 0000965  80.0010 293.4961 12.62265458649329
